{
    "links": {
        "self": "http://www.neowsapp.com/rest/v1/neo/3729231?api_key=iIulBulltgU6a56xZRHN4H3l9WmuAYTsLGpBGhQ2"
    },
    "id": "3729231",
    "neo_reference_id": "3729231",
    "name": "(2015 TD24)",
    "designation": "2015 TD24",
    "nasa_jpl_url": "http://ssd.jpl.nasa.gov/sbdb.cgi?sstr=3729231",
    "absolute_magnitude_h": 25.1,
    "estimated_diameter": {
        "kilometers": {
            "estimated_diameter_min": 0.0253837029,
            "estimated_diameter_max": 0.0567596853
        },
        "meters": {
            "estimated_diameter_min": 25.3837029364,
            "estimated_diameter_max": 56.7596852866
        },
        "miles": {
            "estimated_diameter_min": 0.0157726969,
            "estimated_diameter_max": 0.0352688224
        },
        "feet": {
            "estimated_diameter_min": 83.279867942,
            "estimated_diameter_max": 186.2194458756
        }
    },
    "is_potentially_hazardous_asteroid": false,
    "close_approach_data": [
        {
            "close_approach_date": "2015-10-13",
            "close_approach_date_full": "2015-Oct-13 12:31",
            "epoch_date_close_approach": 1444739460000,
            "relative_velocity": {
                "kilometers_per_second": "9.2513319416",
                "kilometers_per_hour": "33304.7949897782",
                "miles_per_hour": "20694.3044201764"
            },
            "miss_distance": {
                "astronomical": "0.10691684",
                "lunar": "41.59065076",
                "kilometers": "15994531.5311308",
                "miles": "9938541.03717304"
            },
            "orbiting_body": "Earth"
        },
        {
            "close_approach_date": "2018-01-12",
            "close_approach_date_full": "2018-Jan-12 08:08",
            "epoch_date_close_approach": 1515744480000,
            "relative_velocity": {
                "kilometers_per_second": "8.1471305449",
                "kilometers_per_hour": "29329.6699617652",
                "miles_per_hour": "18224.3163159646"
            },
            "miss_distance": {
                "astronomical": "0.0986353484",
                "lunar": "38.3691505276",
                "kilometers": "14755638.027347908",
                "miles": "9168728.3106128104"
            },
            "orbiting_body": "Mars"
        }
    ],
    "orbital_data": {
        "orbit_id": "6",
        "orbit_determination_date": "2017-04-06 08:31:32",
        "first_observation_date": "2015-10-08",
        "last_observation_date": "2015-10-14",
        "data_arc_in_days": 6,
        "observations_used": 22,
        "orbit_uncertainty": "8",
        "minimum_orbit_intersection": ".0997772",
        "jupiter_tisserand_invariant": "4.786",
        "epoch_osculation": "2457305.5",
        "eccentricity": ".2263042572983522",
        "semi_major_axis": "1.356815639197157",
        "inclination": "17.01998499540631",
        "ascending_node_longitude": "193.238788530968",
        "orbital_period": "577.2709300709615",
        "perihelion_distance": "1.049762483677855",
        "perihelion_argument": "224.045544499381",
        "aphelion_distance": "1.663868794716458",
        "perihelion_time": "2457348.963584096195",
        "mean_anomaly": "332.8950663205806",
        "mean_motion": ".6236239887495231",
        "equinox": "J2000",
        "orbit_class": {
            "orbit_class_type": "AMO",
            "orbit_class_description": "Near-Earth asteroid orbits similar to that of 1221 Amor",
            "orbit_class_range": "1.017 AU < q (perihelion) < 1.3 AU"
        }
    },
    "is_sentry_object": false
}